CCSDS_OMM_VERS,COMMENT,CREATION_DATE,ORIGINATOR,OBJECT_NAME,OBJECT_ID,CENTER_NAME,REF_FRAME,TIME_SYSTEM,MEAN_ELEMENT_THEORY,EPOCH,MEAN_MOTION,ECCENTRICITY,INCLINATION,RA_OF_ASC_NODE,ARG_OF_PERICENTER,MEAN_ANOMALY,EPHEMERIS_TYPE,CLASSIFICATION_TYPE,NORAD_CAT_ID,ELEMENT_SET_NO,REV_AT_EPOCH,BSTAR,MEAN_MOTION_DOT,MEAN_MOTION_DDOT,SEMIMAJOR_AXIS,PERIOD,APOAPSIS,PERIAPSIS,OBJECT_TYPE,RCS_SIZE,COUNTRY_CODE,LAUNCH_DATE,SITE,DECAY_DATE,FILE,GP_ID,TLE_LINE0,TLE_LINE1,TLE_LINE2,NORAD_KEY,JCAT,DeepCat,Satcat,Piece,Active,Type,Name,LDate,Parent,Owner,State,SDate,ExpandedStatus,DDate,ODate,Period,Perigee,PF,Apogee,AF,Inc,IF,OpOrbit,SATCAT_KEY,DENSITY_SCORE
3.0,GENERATED VIA SPACE-TRACK.ORG API,2026-05-06T15:06:46,18 SPCS,ASTRA 2C,2001-025A,EARTH,TEME,UTC,SGP4,2026-05-06T11:37:48.785088,0.99037256,0.0006497,8.0882,64.6563,326.0792,50.5785,0,U,26853,999,4454,0.0,5.5e-07,0.0,42514.405,1453.998,36163.892,36108.649,PAYLOAD,LARGE,SES,2001-06-16,TTMTR,,5177723,322310787,0 ASTRA 2C,1 26853U 01025A   26126.48459242  .00000055  00000-0  00000+0 0  9996,2 26853   8.0882  64.6563 0006497 326.0792  50.5785  0.99037256 44545,26853,S26853,-,26853,2001-025A,P,P      G,Astra 2C,2001 Jun 16,S26855,SESSA,L,2001 Jun 16 0844,In Earth orbit,-,2026 May  4 ,1454.007,36108, ,36164, ,8.08, ,GEO/ID,26853,2.0732989357405063
3.0,GENERATED VIA SPACE-TRACK.ORG API,2026-05-06T14:56:52,18 SPCS,STTW-T2,1984-035A,EARTH,TEME,UTC,SGP4,2026-05-06T11:59:42.917856,1.00240708,0.0006146,9.5281,318.1831,190.458,26.7421,0,U,14899,999,4695,0.0,-3.44e-06,0.0,42173.446,1436.542,35821.231,35769.391,PAYLOAD,LARGE,PRC,1984-04-08,XSC,,5177368,322302466,0 STTW-T2,1 14899U 84035A   26126.49980229 -.00000344  00000-0  00000+0 0  9992,2 14899   9.5281 318.1831 0006146 190.4580  26.7421  1.00240708 46955,14899,S14899,-,14899,1984-035A,P,P,Shiyan Tongbu Tongxin Wx.,1984 Apr  8,S14900,CNSA,CN,1984 Apr  8 1141?,In Earth orbit,-,2026 May  4 ,1436.532,35769, ,35820, ,9.53, ,GEO/ID,14899,2.07381036658044
3.0,GENERATED VIA SPACE-TRACK.ORG API,2026-05-06T14:56:52,18 SPCS,XTAR-EUR,2005-005A,EARTH,TEME,UTC,SGP4,2026-05-05T20:03:12.187008,0.98996822,0.0004539,4.2322,77.2749,319.1543,40.6518,0,U,28542,999,7773,0.0,-2.5e-07,0.0,42525.981,1454.592,36167.148,36128.543,PAYLOAD,LARGE,US,2005-02-12,FRGUI,,5177636,322308938,0 XTAR-EUR,1 28542U 05005A   26125.83555772 -.00000025  00000-0  00000+0 0  9996,2 28542   4.2322  77.2749 0004539 319.1543  40.6518  0.98996822 77730,28542,S28542,-,28542,2005-005A,P,P,XTAR-EUR,2005 Feb 12,S28543,HISD,E,2005 Feb 12 2129,In Earth orbit,-,2026 May  3 ,1454.584,36128, ,36167, ,4.23, ,GEO/ID,28542,2.0809149616161546
3.0,GENERATED VIA SPACE-TRACK.ORG API,2026-05-06T14:46:56,18 SPCS,PALAPA 1,1976-066A,EARTH,TEME,UTC,SGP4,2026-05-06T11:47:25.363392,1.0006846,0.0002445,7.9791,305.3244,230.0665,301.5919,0,U,9009,999,12752,0.0,-5.6e-07,0.0,42221.828,1439.015,35854.016,35833.37,PAYLOAD,LARGE,INDO,1976-07-08,AFETR,,5177177,322298054,0 PALAPA 1,1  9009U 76066A   26126.49126578 -.00000056  00000-0  00000+0 0  9993,2  9009   7.9791 305.3244 0002445 230.0665 301.5919  1.00068460127521,9009,S09009,-,9009,1976-066A,P,P,Palapa A1,1976 Jul  8,S09017,TELK,ID,1976 Jul  8 2356,In Earth orbit,-,2026 May  5 ,1439.015,35833, ,35853, ,7.98, ,GEO/ID,9009,2.0831530248790155
3.0,GENERATED VIA SPACE-TRACK.ORG API,2026-05-06T10:08:52,18 SPCS,TELE-X,1989-027A,EARTH,TEME,UTC,SGP4,2026-05-06T04:52:01.847424,0.99169619,0.00018812,14.8947,352.662,171.1822,192.9765,0,U,19919,999,11679,0.0,7e-07,0.0,42476.567,1452.058,36106.423,36090.442,PAYLOAD,LARGE,SWED,1989-04-02,FRGUI,,5176958,322263413,0 TELE-X,1 19919U 89027A   26126.20279916  .00000070  00000-0  00000-0 0  9995,2 19919  14.8947 352.6620 0001881 171.1822 192.9765  0.99169619116791,19919,S19919,-,19919,1989-027A,P,P,Tele-X,1989 Apr  2,S19920,SESS,S,1989 Apr  2 0247,In Earth orbit,-,2026 May  5 ,1452.06,36090, ,36106, ,14.89, ,GEO/ID,19919,2.0843645737202623
3.0,GENERATED VIA SPACE-TRACK.ORG API,2026-05-06T14:46:56,18 SPCS,ANIK B1 (TELESAT-4),1978-116A,EARTH,TEME,UTC,SGP4,2026-05-06T09:33:53.360064,0.99819883,0.0017758,9.5772,316.3481,332.3835,46.868,0,U,11153,999,13561,0.0,-2.69e-06,0.0,42291.894,1442.598,35988.861,35838.657,PAYLOAD,LARGE,CA,1978-12-16,AFETR,,5177209,322298477,0 ANIK B1 (TELESAT-4),1 11153U 78116A   26126.39853426 -.00000269  00000-0  00000+0 0  9998,2 11153   9.5772 316.3481 0017758 332.3835  46.8680  0.99819883135617,11153,S11153,-,11153,1978-116A,P,P,Anik B,1978 Dec 16,S13915,TCANL,CA,1978 Dec 16 0045,In Earth orbit,-,2026 May  4 ,1442.593,35838, ,35988, ,9.58, ,GEO/ID,11153,2.0853235356497715
3.0,GENERATED VIA SPACE-TRACK.ORG API,2026-05-06T14:56:52,18 SPCS,SIRIUS W (MARCOPOLO 1),1989-067A,EARTH,TEME,UTC,SGP4,2026-05-06T11:13:06.155040,0.99187481,0.0006804,14.822,0.6833,33.7604,313.4345,0,U,20193,999,4640,0.0,-2.51e-06,0.0,42471.468,1451.796,36122.23,36064.435,PAYLOAD,LARGE,SWED,1989-08-27,AFETR,,5177406,322303444,0 SIRIUS W (MARCOPOLO 1),1 20193U 89067A   26126.46743235 -.00000251  00000-0  00000+0 0  9994,2 20193  14.8220   0.6833 0006804  33.7604 313.4345  0.99187481 46409,20193,S20193,-,20193,1989-067A,P,P,Sirius W,1989 Aug 27,S20195,SESS,S,1989 Aug 27 2325,In Earth orbit,-,2026 May  3 ,1451.782,36064, ,36121, ,14.82, ,GEO/ID,20193,2.0903487074899743
3.0,GENERATED VIA SPACE-TRACK.ORG API,2026-05-06T14:56:52,18 SPCS,HGS 4 (GALAXY 4),1993-039A,EARTH,TEME,UTC,SGP4,2026-05-06T11:18:06.770016,1.00264581,0.0017136,14.5706,355.4598,39.4333,73.7902,0,U,22694,999,11858,0.0,-1.02e-06,0.0,42166.752,1436.2,35860.874,35716.36,PAYLOAD,LARGE,US,1993-06-25,FRGUI,,5177484,322304920,0 HGS 4 (GALAXY 4),1 22694U 93039A   26126.47091169 -.00000102  00000-0  00000+0 0  9994,2 22694  14.5706 355.4598 0017136  39.4333  73.7902  1.00264581118588,22694,S22694,-,22694,1993-039A,P,P,HGS-4,1993 Jun 25,A05349,SESINTU,US,1993 Jun 25 0038,In Earth orbit,-,2026 May  5 ,1436.2,35716, ,35860, ,14.57, ,GEO/I,22694,2.094079064305379
3.0,GENERATED VIA SPACE-TRACK.ORG API,2026-05-06T10:08:52,18 SPCS,INTELSAT 4A-F1,1975-091A,EARTH,TEME,UTC,SGP4,2026-05-06T04:41:25.363680,0.99931684,0.0003781,7.9588,304.5986,265.9806,106.3092,0,U,8330,999,12105,0.0,8.2e-07,0.0,42260.345,1440.984,35898.189,35866.231,PAYLOAD,LARGE,ITSO,1975-09-26,AFETR,,5176958,322260984,0 INTELSAT 4A-F1,1 08330U 75091A   26126.19543245  .00000082  00000-0  00000-0 0  9996,2 08330   7.9588 304.5986 0003781 265.9806 106.3092  0.99931684121052,8330,S08330,-,8330,1975-091A,P,P,INTELSAT IVA F1,1975 Sep 26,S08331,SESINTU,US,1975 Sep 26 0045,In Earth orbit,-,2026 May  5 ,1440.991,35866, ,35898, ,7.96, ,GEO/ID,8330,2.0983068067978876
3.0,GENERATED VIA SPACE-TRACK.ORG API,2026-05-06T14:36:32,18 SPCS,FENGYUN 2E,2008-066A,EARTH,TEME,UTC,SGP4,2026-05-06T11:18:41.279904,0.99118205,7.04e-05,9.1738,54.6285,344.2272,76.0056,0,U,33463,999,6359,0.0,3.3e-07,0.0,42491.255,1452.811,36116.111,36110.128,PAYLOAD,LARGE,PRC,2008-12-23,XSC,,5176994,322292587,0 FENGYUN 2E,1 33463U 08066A   26126.47131111  .00000033  00000-0  00000+0 0  9990,2 33463   9.1738  54.6285 0000704 344.2272  76.0056  0.99118205 63596,33463,S33463,-,33463,2008-066A,P,P,Feng Yun 2E,2008 Dec 23,S33464,NSMC,CN,2008 Dec 23 0118,In Earth orbit,-,2026 May  3 ,1452.805,36109, ,36116, ,9.17, ,GEO/ID,33463,2.0998001954964307
3.0,GENERATED VIA SPACE-TRACK.ORG API,2026-05-06T14:56:52,18 SPCS,INSAT 2B,1993-048B,EARTH,TEME,UTC,SGP4,2026-05-06T11:16:05.867040,0.99984335,0.0015185,14.4388,2.912,226.3175,130.3609,0,U,22724,999,12015,0.0,-2.72e-06,0.0,42245.508,1440.226,35931.522,35803.223,PAYLOAD,LARGE,IND,1993-07-22,FRGUI,,5177485,322304931,0 INSAT 2B,1 22724U 93048B   26126.46951235 -.00000272  00000-0  00000+0 0  9994,2 22724  14.4388   2.9120 0015185 226.3175 130.3609  0.99984335120158,22724,S22724,-,22724,1993-048B,P,P,Insat 2B,1993 Jul 22,S22725,ISRO,IN,1993 Jul 22 2323,In Earth orbit,-,2026 May  3 ,1440.213,35803, ,35930, ,14.44, ,GEO/ID,22724,2.100824214362807
3.0,GENERATED VIA SPACE-TRACK.ORG API,2026-05-06T14:46:56,18 SPCS,USA 12,1985-092C,EARTH,TEME,UTC,SGP4,2026-05-06T09:36:30.608928,0.98993025,0.0004903,14.3132,346.6069,109.1254,250.033,0,U,16117,999,2530,0.0,-2.5e-06,0.0,42527.068,1454.648,36169.784,36128.082,PAYLOAD,,US,1985-10-03,AFETR,,5177283,322300902,0 USA 12,1 16117U 85092C   26126.40035427 -.00000250  00000-0  00000+0 0  9999,2 16117  14.3132 346.6069 0004903 109.1254 250.0330  0.98993025 25302,16117,S16117,-,16117,1985-092C,P,P ---S- c,DSCS III B-5,1985 Oct  3,S16119,SFSSC/DISA,US,1985 Oct  3 0752?,In Earth orbit,-,2026 May  4 ,1454.645,36128, ,36169, ,14.31, ,GEO/ID,16117,2.1025777082121078
3.0,GENERATED VIA SPACE-TRACK.ORG API,2026-05-06T14:56:52,18 SPCS,TELKOM 2,2005-046A,EARTH,TEME,UTC,SGP4,2026-05-06T11:15:07.554816,0.99143878,0.0006902,4.673,76.4198,217.3094,176.2298,0,U,28902,999,7482,0.0,6e-07,0.0,42483.919,1452.435,36135.106,36076.462,PAYLOAD,LARGE,INDO,2005-11-16,FRGUI,,5177641,322309514,0 TELKOM 2,1 28902U 05046A   26126.46883744  .00000060  00000-0  00000+0 0  9992,2 28902   4.6730  76.4198 0006902 217.3094 176.2298  0.99143878 74826,28902,S28902,-,28902,2005-046A,P,P,Telkom 2,2005 Nov 16,S28904,TELK,ID,2005 Nov 17 0019,In Earth orbit,-,2026 May  4 ,1452.433,36076, ,36135, ,4.67, ,GEO/ID,28902,2.1060736053135947
3.0,GENERATED VIA SPACE-TRACK.ORG API,2026-05-06T10:08:52,18 SPCS,INTELSAT 515,1989-006A,EARTH,TEME,UTC,SGP4,2026-05-06T04:05:12.164352,0.99100065,0.00203541,14.9064,354.5115,114.3947,72.0279,0,U,19772,999,12420,0.0,9e-08,0.0,42496.44,1453.077,36204.803,36031.807,PAYLOAD,LARGE,ITSO,1989-01-27,FRGUI,,5176958,322263394,0 INTELSAT 515,1 19772U 89006A   26126.17027968  .00000009  00000-0  00000-0 0  9995,2 19772  14.9064 354.5115 0020354 114.3947  72.0279  0.99100065124205,19772,S19772,-,19772,1989-006A,P,P,Columbia 515,1989 Jan 27,S19773,SESSAP,US,1989 Jan 27 0139,In Earth orbit,-,2026 May  4 ,1453.076,36032, ,36204, ,14.91, ,GEO/ID,19772,2.113250380301046
